CCSDS_OMM_VERS = 2.0
CREATION_DATE  = 
ORIGINATOR     = 

OBJECT_NAME    = UNKNOWN
OBJECT_ID      = 
CENTER_NAME    = EARTH
REF_FRAME      = TEME
TIME_SYSTEM    = UTC
MEAN_ELEMENT_THEORY = SGP/SGP4

EPOCH          = 2026-02-25T00:58:47.936640
MEAN_MOTION    = 14.04679370
ECCENTRICITY   = .0081636
INCLINATION    = 98.7453
RA_OF_ASC_NODE = 93.6492
ARG_OF_PERICENTER = 42.6311
MEAN_ANOMALY   = 318.1154

EPHEMERIS_TYPE = 0
CLASSIFICATION_TYPE = U
NORAD_CAT_ID   = 87029
ELEMENT_SET_NO = 999
REV_AT_EPOCH   = 60343
BSTAR          = .6063E-3
MEAN_MOTION_DOT = .958E-5
MEAN_MOTION_DDOT = 0

CCSDS_OMM_VERS = 2.0
CREATION_DATE  = 
ORIGINATOR     = 

OBJECT_NAME    = UNKNOWN
OBJECT_ID      = 
CENTER_NAME    = EARTH
REF_FRAME      = TEME
TIME_SYSTEM    = UTC
MEAN_ELEMENT_THEORY = SGP/SGP4

EPOCH          = 2026-02-28T09:28:15.755520
MEAN_MOTION    = 14.07259677
ECCENTRICITY   = .0042795
INCLINATION    = 98.7040
RA_OF_ASC_NODE = 104.7865
ARG_OF_PERICENTER = 234.4958
MEAN_ANOMALY   = 125.2216

EPHEMERIS_TYPE = 0
CLASSIFICATION_TYPE = U
NORAD_CAT_ID   = 87042
ELEMENT_SET_NO = 999
REV_AT_EPOCH   = 56488
BSTAR          = .53452E-3
MEAN_MOTION_DOT = .862E-5
MEAN_MOTION_DDOT = 0

CCSDS_OMM_VERS = 2.0
CREATION_DATE  = 
ORIGINATOR     = 

OBJECT_NAME    = UNKNOWN
OBJECT_ID      = 
CENTER_NAME    = EARTH
REF_FRAME      = TEME
TIME_SYSTEM    = UTC
MEAN_ELEMENT_THEORY = SGP/SGP4

EPOCH          = 2026-03-02T14:58:09.963552
MEAN_MOTION    = 13.46233684
ECCENTRICITY   = .0708861
INCLINATION    = 65.7278
RA_OF_ASC_NODE = 63.8530
ARG_OF_PERICENTER = 104.7326
MEAN_ANOMALY   = 263.3326

EPHEMERIS_TYPE = 0
CLASSIFICATION_TYPE = U
NORAD_CAT_ID   = 87051
ELEMENT_SET_NO = 999
REV_AT_EPOCH   = 59933
BSTAR          = .51733E-3
MEAN_MOTION_DOT = .1408E-4
MEAN_MOTION_DDOT = 0

CCSDS_OMM_VERS = 2.0
CREATION_DATE  = 
ORIGINATOR     = 

OBJECT_NAME    = UNKNOWN
OBJECT_ID      = 
CENTER_NAME    = EARTH
REF_FRAME      = TEME
TIME_SYSTEM    = UTC
MEAN_ELEMENT_THEORY = SGP/SGP4

EPOCH          = 2026-03-03T13:12:02.585088
MEAN_MOTION    = 14.11444057
ECCENTRICITY   = .0013079
INCLINATION    = 100.0901
RA_OF_ASC_NODE = 316.8997
ARG_OF_PERICENTER = 120.0417
MEAN_ANOMALY   = 240.2049

EPHEMERIS_TYPE = 0
CLASSIFICATION_TYPE = U
NORAD_CAT_ID   = 87054
ELEMENT_SET_NO = 999
REV_AT_EPOCH   = 62772
BSTAR          = .12019E-2
MEAN_MOTION_DOT = .2126E-4
MEAN_MOTION_DDOT = 0

CCSDS_OMM_VERS = 2.0
CREATION_DATE  = 
ORIGINATOR     = 

OBJECT_NAME    = UNKNOWN
OBJECT_ID      = 
CENTER_NAME    = EARTH
REF_FRAME      = TEME
TIME_SYSTEM    = UTC
MEAN_ELEMENT_THEORY = SGP/SGP4

EPOCH          = 2026-03-03T07:30:29.009664
MEAN_MOTION    = 13.86571578
ECCENTRICITY   = .0472631
INCLINATION    = 61.2221
RA_OF_ASC_NODE = 32.2024
ARG_OF_PERICENTER = 278.1694
MEAN_ANOMALY   = 76.6001

EPHEMERIS_TYPE = 0
CLASSIFICATION_TYPE = U
NORAD_CAT_ID   = 87071
ELEMENT_SET_NO = 999
REV_AT_EPOCH   = 61365
BSTAR          = .21075E-2
MEAN_MOTION_DOT = .5843E-4
MEAN_MOTION_DDOT = 0

CCSDS_OMM_VERS = 2.0
CREATION_DATE  = 
ORIGINATOR     = 

OBJECT_NAME    = UNKNOWN
OBJECT_ID      = 
CENTER_NAME    = EARTH
REF_FRAME      = TEME
TIME_SYSTEM    = UTC
MEAN_ELEMENT_THEORY = SGP/SGP4

EPOCH          = 2026-03-02T16:44:47.858496
MEAN_MOTION    = 12.42854248
ECCENTRICITY   = .003046
INCLINATION    = 102.2550
RA_OF_ASC_NODE = 158.6101
ARG_OF_PERICENTER = 287.7140
MEAN_ANOMALY   = 72.0600

EPHEMERIS_TYPE = 0
CLASSIFICATION_TYPE = U
NORAD_CAT_ID   = 87129
ELEMENT_SET_NO = 999
REV_AT_EPOCH   = 55660
BSTAR          = .18539E-2
MEAN_MOTION_DOT = .211E-5
MEAN_MOTION_DDOT = 0

CCSDS_OMM_VERS = 2.0
CREATION_DATE  = 
ORIGINATOR     = 

OBJECT_NAME    = UNKNOWN
OBJECT_ID      = 
CENTER_NAME    = EARTH
REF_FRAME      = TEME
TIME_SYSTEM    = UTC
MEAN_ELEMENT_THEORY = SGP/SGP4

EPOCH          = 2026-02-28T11:32:10.593024
MEAN_MOTION    = 13.66288706
ECCENTRICITY   = .010535
INCLINATION    = 90.3448
RA_OF_ASC_NODE = 72.2002
ARG_OF_PERICENTER = 27.8472
MEAN_ANOMALY   = 332.8272

EPHEMERIS_TYPE = 0
CLASSIFICATION_TYPE = U
NORAD_CAT_ID   = 87159
ELEMENT_SET_NO = 999
REV_AT_EPOCH   = 56730
BSTAR          = .16012E-2
MEAN_MOTION_DOT = .1382E-4
MEAN_MOTION_DDOT = 0

CCSDS_OMM_VERS = 2.0
CREATION_DATE  = 
ORIGINATOR     = 

OBJECT_NAME    = UNKNOWN
OBJECT_ID      = 
CENTER_NAME    = EARTH
REF_FRAME      = TEME
TIME_SYSTEM    = UTC
MEAN_ELEMENT_THEORY = SGP/SGP4

EPOCH          = 2026-03-02T21:58:39.551520
MEAN_MOTION    = 13.64385473
ECCENTRICITY   = .0645706
INCLINATION    = 65.6013
RA_OF_ASC_NODE = 38.4765
ARG_OF_PERICENTER = 28.7167
MEAN_ANOMALY   = 334.7886

EPHEMERIS_TYPE = 0
CLASSIFICATION_TYPE = U
NORAD_CAT_ID   = 87163
ELEMENT_SET_NO = 999
REV_AT_EPOCH   = 58845
BSTAR          = .21151E-2
MEAN_MOTION_DOT = .7211E-4
MEAN_MOTION_DDOT = 0

CCSDS_OMM_VERS = 2.0
CREATION_DATE  = 
ORIGINATOR     = 

OBJECT_NAME    = UNKNOWN
OBJECT_ID      = 
CENTER_NAME    = EARTH
REF_FRAME      = TEME
TIME_SYSTEM    = UTC
MEAN_ELEMENT_THEORY = SGP/SGP4

EPOCH          = 2026-02-28T13:44:04.770816
MEAN_MOTION    = 14.59199266
ECCENTRICITY   = .0105127
INCLINATION    = 65.2024
RA_OF_ASC_NODE = 101.5097
ARG_OF_PERICENTER = 18.1644
MEAN_ANOMALY   = 342.3166

EPHEMERIS_TYPE = 0
CLASSIFICATION_TYPE = U
NORAD_CAT_ID   = 87164
ELEMENT_SET_NO = 999
REV_AT_EPOCH   = 64712
BSTAR          = .84687E-3
MEAN_MOTION_DOT = .4202E-4
MEAN_MOTION_DDOT = 0

CCSDS_OMM_VERS = 2.0
CREATION_DATE  = 
ORIGINATOR     = 

OBJECT_NAME    = UNKNOWN
OBJECT_ID      = 
CENTER_NAME    = EARTH
REF_FRAME      = TEME
TIME_SYSTEM    = UTC
MEAN_ELEMENT_THEORY = SGP/SGP4

EPOCH          = 2026-03-03T13:14:20.850144
MEAN_MOTION    = 14.29774592
ECCENTRICITY   = .004637
INCLINATION    = 98.5330
RA_OF_ASC_NODE = 286.7563
ARG_OF_PERICENTER = 86.0738
MEAN_ANOMALY   = 274.5744

EPHEMERIS_TYPE = 0
CLASSIFICATION_TYPE = U
NORAD_CAT_ID   = 87204
ELEMENT_SET_NO = 999
REV_AT_EPOCH   = 63698
BSTAR          = .10039E-2
MEAN_MOTION_DOT = .2566E-4
MEAN_MOTION_DDOT = 0

CCSDS_OMM_VERS = 2.0
CREATION_DATE  = 
ORIGINATOR     = 

OBJECT_NAME    = UNKNOWN
OBJECT_ID      = 
CENTER_NAME    = EARTH
REF_FRAME      = TEME
TIME_SYSTEM    = UTC
MEAN_ELEMENT_THEORY = SGP/SGP4

EPOCH          = 2026-02-24T19:39:16.252704
MEAN_MOTION    = 14.47142657
ECCENTRICITY   = .005159
INCLINATION    = 99.0886
RA_OF_ASC_NODE = 65.9782
ARG_OF_PERICENTER = 299.6495
MEAN_ANOMALY   = 186.2543

EPHEMERIS_TYPE = 0
CLASSIFICATION_TYPE = U
NORAD_CAT_ID   = 87211
ELEMENT_SET_NO = 999
REV_AT_EPOCH   = 71848
BSTAR          = .93562E-3
MEAN_MOTION_DOT = .3419E-4
MEAN_MOTION_DDOT = 0

CCSDS_OMM_VERS = 2.0
CREATION_DATE  = 
ORIGINATOR     = 

OBJECT_NAME    = UNKNOWN
OBJECT_ID      = 
CENTER_NAME    = EARTH
REF_FRAME      = TEME
TIME_SYSTEM    = UTC
MEAN_ELEMENT_THEORY = SGP/SGP4

EPOCH          = 2026-03-02T11:30:42.301728
MEAN_MOTION    = 13.84252622
ECCENTRICITY   = .0068963
INCLINATION    = 100.3330
RA_OF_ASC_NODE = 72.9871
ARG_OF_PERICENTER = 50.2422
MEAN_ANOMALY   = 310.4777

EPHEMERIS_TYPE = 0
CLASSIFICATION_TYPE = U
NORAD_CAT_ID   = 87214
ELEMENT_SET_NO = 999
REV_AT_EPOCH   = 61127
BSTAR          = .16007E-2
MEAN_MOTION_DOT = .1769E-4
MEAN_MOTION_DDOT = 0

